[{"OBJECT_NAME":"STARLINK-6126","OBJECT_ID":"2023-046AJ","EPOCH":"2026-03-09T22:00:01.999584","MEAN_MOTION":15.125351,"ECCENTRICITY":0.00023023,"INCLINATION":42.9998,"RA_OF_ASC_NODE":144.9048,"ARG_OF_PERICENTER":271.6853,"MEAN_ANOMALY":109.3366,"EPHEMERIS_TYPE":0,"CLASSIFICATION_TYPE":"U","NORAD_CAT_ID":56124,"ELEMENT_SET_NO":999,"REV_AT_EPOCH":577,"BSTAR":0.0675572,"MEAN_MOTION_DOT":0.01299298,"MEAN_MOTION_DDOT":0},{"OBJECT_NAME":"CZ-4B DEB","OBJECT_ID":"1999-057H","EPOCH":"2026-03-09T17:25:29.363520","MEAN_MOTION":15.25756771,"ECCENTRICITY":0.00339549,"INCLINATION":98.6728,"RA_OF_ASC_NODE":149.1557,"ARG_OF_PERICENTER":175.409,"MEAN_ANOMALY":184.7463,"EPHEMERIS_TYPE":0,"CLASSIFICATION_TYPE":"U","NORAD_CAT_ID":26121,"ELEMENT_SET_NO":999,"REV_AT_EPOCH":41150,"BSTAR":0.00075758105,"MEAN_MOTION_DOT":0.00019602,"MEAN_MOTION_DDOT":0}]
